[{"OBJECT_NAME":"SITRO-AIS 5 (KATYS)","OBJECT_ID":"2023-091L","EPOCH":"2026-04-26T19:43:21.088704","MEAN_MOTION":15.28274576,"ECCENTRICITY":0.0009889,"INCLINATION":97.51,"RA_OF_ASC_NODE":180.2711,"ARG_OF_PERICENTER":283.9888,"MEAN_ANOMALY":76.0251,"EPHEMERIS_TYPE":0,"CLASSIFICATION_TYPE":"U","NORAD_CAT_ID":57176,"ELEMENT_SET_NO":999,"REV_AT_EPOCH":15649,"BSTAR":0.00044118,"MEAN_MOTION_DOT":0.000121,"MEAN_MOTION_DDOT":0},{"OBJECT_NAME":"SITRO-AIS 6 (CHIRKIN)","OBJECT_ID":"2023-091AC","EPOCH":"2026-04-26T19:37:15.263328","MEAN_MOTION":15.25069047,"ECCENTRICITY":0.001031,"INCLINATION":97.5106,"RA_OF_ASC_NODE":179.6485,"ARG_OF_PERICENTER":289.1765,"MEAN_ANOMALY":70.8357,"EPHEMERIS_TYPE":0,"CLASSIFICATION_TYPE":"U","NORAD_CAT_ID":57192,"ELEMENT_SET_NO":999,"REV_AT_EPOCH":15645,"BSTAR":0.00027134,"MEAN_MOTION_DOT":6.721e-5,"MEAN_MOTION_DDOT":0},{"OBJECT_NAME":"SITRO-AIS 8 (ANOKHIN)","OBJECT_ID":"2023-091AD","EPOCH":"2026-04-26T20:38:00.322944","MEAN_MOTION":15.3075804,"ECCENTRICITY":0.0009106,"INCLINATION":97.5093,"RA_OF_ASC_NODE":181.698,"ARG_OF_PERICENTER":279.1597,"MEAN_ANOMALY":80.8613,"EPHEMERIS_TYPE":0,"CLASSIFICATION_TYPE":"U","NORAD_CAT_ID":57193,"ELEMENT_SET_NO":999,"REV_AT_EPOCH":15659,"BSTAR":0.00050036,"MEAN_MOTION_DOT":0.00014826,"MEAN_MOTION_DDOT":0},{"OBJECT_NAME":"SITRO-AIS 7 (FARTUSHNIY)","OBJECT_ID":"2023-091AE","EPOCH":"2026-04-26T19:27:16.422336","MEAN_MOTION":15.24784595,"ECCENTRICITY":0.0010198,"INCLINATION":97.5105,"RA_OF_ASC_NODE":179.4918,"ARG_OF_PERICENTER":290.4472,"MEAN_ANOMALY":69.567,"EPHEMERIS_TYPE":0,"CLASSIFICATION_TYPE":"U","NORAD_CAT_ID":57194,"ELEMENT_SET_NO":999,"REV_AT_EPOCH":15644,"BSTAR":0.00025312,"MEAN_MOTION_DOT":6.211e-5,"MEAN_MOTION_DDOT":0},{"OBJECT_NAME":"SITRO-AIS 10 (BURDAEV)","OBJECT_ID":"2023-091AK","EPOCH":"2026-04-26T20:05:58.928640","MEAN_MOTION":15.36673453,"ECCENTRICITY":0.0005626,"INCLINATION":97.5112,"RA_OF_ASC_NODE":186.2244,"ARG_OF_PERICENTER":246.3104,"MEAN_ANOMALY":113.7549,"EPHEMERIS_TYPE":0,"CLASSIFICATION_TYPE":"U","NORAD_CAT_ID":57199,"ELEMENT_SET_NO":999,"REV_AT_EPOCH":15687,"BSTAR":0.00054694,"MEAN_MOTION_DOT":0.00019542,"MEAN_MOTION_DDOT":0},{"OBJECT_NAME":"SITRO-AIS 9 (SHCHUKIN)","OBJECT_ID":"2023-091AM","EPOCH":"2026-04-26T20:21:49.687200","MEAN_MOTION":15.36233631,"ECCENTRICITY":0.0005821,"INCLINATION":97.5111,"RA_OF_ASC_NODE":186.0038,"ARG_OF_PERICENTER":247.1113,"MEAN_ANOMALY":112.9516,"EPHEMERIS_TYPE":0,"CLASSIFICATION_TYPE":"U","NORAD_CAT_ID":57201,"ELEMENT_SET_NO":999,"REV_AT_EPOCH":15686,"BSTAR":0.00054876,"MEAN_MOTION_DOT":0.00019332,"MEAN_MOTION_DDOT":0},{"OBJECT_NAME":"SITRO-AIS 12 (SMIRENNIY)","OBJECT_ID":"2023-091AQ","EPOCH":"2026-04-26T20:22:01.315776","MEAN_MOTION":15.36510218,"ECCENTRICITY":0.0005615,"INCLINATION":97.5123,"RA_OF_ASC_NODE":186.4396,"ARG_OF_PERICENTER":239.5137,"MEAN_ANOMALY":120.5552,"EPHEMERIS_TYPE":0,"CLASSIFICATION_TYPE":"U","NORAD_CAT_ID":57204,"ELEMENT_SET_NO":999,"REV_AT_EPOCH":15688,"BSTAR":0.0005657,"MEAN_MOTION_DOT":0.0002011,"MEAN_MOTION_DDOT":0},{"OBJECT_NAME":"SITRO-AIS 11 (SHEFFER)","OBJECT_ID":"2023-091AU","EPOCH":"2026-04-26T19:26:54.361824","MEAN_MOTION":15.36890478,"ECCENTRICITY":0.0005518,"INCLINATION":97.512,"RA_OF_ASC_NODE":186.6164,"ARG_OF_PERICENTER":239.066,"MEAN_ANOMALY":121.0042,"EPHEMERIS_TYPE":0,"CLASSIFICATION_TYPE":"U","NORAD_CAT_ID":57208,"ELEMENT_SET_NO":999,"REV_AT_EPOCH":15689,"BSTAR":0.00056629,"MEAN_MOTION_DOT":0.0002038,"MEAN_MOTION_DDOT":0},{"OBJECT_NAME":"SITRO-AIS 25","OBJECT_ID":"2024-039R","EPOCH":"2026-04-26T20:20:04.157376","MEAN_MOTION":14.93094807,"ECCENTRICITY":0.0147179,"INCLINATION":95.3924,"RA_OF_ASC_NODE":199.8212,"ARG_OF_PERICENTER":146.8858,"MEAN_ANOMALY":214.1689,"EPHEMERIS_TYPE":0,"CLASSIFICATION_TYPE":"U","NORAD_CAT_ID":59066,"ELEMENT_SET_NO":999,"REV_AT_EPOCH":11706,"BSTAR":0.00061005,"MEAN_MOTION_DOT":7.832e-5,"MEAN_MOTION_DDOT":0},{"OBJECT_NAME":"SITRO-AIS 26","OBJECT_ID":"2024-039S","EPOCH":"2026-04-26T20:12:11.360160","MEAN_MOTION":14.92901,"ECCENTRICITY":0.0147432,"INCLINATION":95.3923,"RA_OF_ASC_NODE":199.7253,"ARG_OF_PERICENTER":147.4384,"MEAN_ANOMALY":213.6042,"EPHEMERIS_TYPE":0,"CLASSIFICATION_TYPE":"U","NORAD_CAT_ID":59067,"ELEMENT_SET_NO":999,"REV_AT_EPOCH":11705,"BSTAR":0.00059449,"MEAN_MOTION_DOT":7.597e-5,"MEAN_MOTION_DDOT":0},{"OBJECT_NAME":"SITRO-AIS 27","OBJECT_ID":"2024-039T","EPOCH":"2026-04-26T19:49:47.131680","MEAN_MOTION":14.93304709,"ECCENTRICITY":0.0146494,"INCLINATION":95.3921,"RA_OF_ASC_NODE":199.9633,"ARG_OF_PERICENTER":146.2886,"MEAN_ANOMALY":214.7764,"EPHEMERIS_TYPE":0,"CLASSIFICATION_TYPE":"U","NORAD_CAT_ID":59068,"ELEMENT_SET_NO":999,"REV_AT_EPOCH":11707,"BSTAR":0.00052835,"MEAN_MOTION_DOT":6.804e-5,"MEAN_MOTION_DDOT":0},{"OBJECT_NAME":"SITRO-AIS 28","OBJECT_ID":"2024-039U","EPOCH":"2026-04-26T19:19:01.033248","MEAN_MOTION":14.93343818,"ECCENTRICITY":0.0146345,"INCLINATION":95.3929,"RA_OF_ASC_NODE":199.9931,"ARG_OF_PERICENTER":146.191,"MEAN_ANOMALY":214.8754,"EPHEMERIS_TYPE":0,"CLASSIFICATION_TYPE":"U","NORAD_CAT_ID":59071,"ELEMENT_SET_NO":999,"REV_AT_EPOCH":11707,"BSTAR":0.00050835,"MEAN_MOTION_DOT":6.549e-5,"MEAN_MOTION_DDOT":0},{"OBJECT_NAME":"GRBBETA","OBJECT_ID":"2024-128C","EPOCH":"2026-04-26T20:14:55.449312","MEAN_MOTION":15.06215069,"ECCENTRICITY":0.0046982,"INCLINATION":61.9915,"RA_OF_ASC_NODE":36.3454,"ARG_OF_PERICENTER":123.8827,"MEAN_ANOMALY":236.6749,"EPHEMERIS_TYPE":0,"CLASSIFICATION_TYPE":"U","NORAD_CAT_ID":60237,"ELEMENT_SET_NO":999,"REV_AT_EPOCH":9853,"BSTAR":0.00031037,"MEAN_MOTION_DOT":4.468e-5,"MEAN_MOTION_DDOT":0},{"OBJECT_NAME":"OOV-CUBE (TUBSAT-30)","OBJECT_ID":"2024-128F","EPOCH":"2026-04-26T17:59:01.502016","MEAN_MOTION":15.02511706,"ECCENTRICITY":0.0050469,"INCLINATION":61.996,"RA_OF_ASC_NODE":44.8977,"ARG_OF_PERICENTER":122.464,"MEAN_ANOMALY":238.1345,"EPHEMERIS_TYPE":0,"CLASSIFICATION_TYPE":"U","NORAD_CAT_ID":60240,"ELEMENT_SET_NO":999,"REV_AT_EPOCH":9838,"BSTAR":0.00023209,"MEAN_MOTION_DOT":2.968e-5,"MEAN_MOTION_DDOT":0},{"OBJECT_NAME":"ROBUSTA-3A (MEDITERRANEE)","OBJECT_ID":"2024-128J","EPOCH":"2026-04-26T20:34:04.614240","MEAN_MOTION":15.10860906,"ECCENTRICITY":0.0047835,"INCLINATION":61.988,"RA_OF_ASC_NODE":29.6522,"ARG_OF_PERICENTER":117.6657,"MEAN_ANOMALY":242.9304,"EPHEMERIS_TYPE":0,"CLASSIFICATION_TYPE":"U","NORAD_CAT_ID":60243,"ELEMENT_SET_NO":999,"REV_AT_EPOCH":9866,"BSTAR":0.00058111,"MEAN_MOTION_DOT":9.772e-5,"MEAN_MOTION_DDOT":0},{"OBJECT_NAME":"LASARSAT","OBJECT_ID":"2024-247Q","EPOCH":"2026-04-26T12:01:18.142752","MEAN_MOTION":15.43227216,"ECCENTRICITY":0.0005523,"INCLINATION":44.9748,"RA_OF_ASC_NODE":191.9414,"ARG_OF_PERICENTER":356.8551,"MEAN_ANOMALY":3.2302,"EPHEMERIS_TYPE":0,"CLASSIFICATION_TYPE":"U","NORAD_CAT_ID":62391,"ELEMENT_SET_NO":999,"REV_AT_EPOCH":7532,"BSTAR":0.00079791489,"MEAN_MOTION_DOT":0.00036052,"MEAN_MOTION_DDOT":0}]
