SITRO-AIS 5 (KATYS)     
1 57176U 23091L   26116.82177186  .00012100  00000+0  44118-3 0  9991
2 57176  97.5100 180.2711 0009889 283.9888  76.0251 15.28274576156493
SITRO-AIS 6 (CHIRKIN)   
1 57192U 23091AC  26116.81753777  .00006721  00000+0  27134-3 0  9995
2 57192  97.5106 179.6485 0010310 289.1765  70.8357 15.25069047156457
SITRO-AIS 8 (ANOKHIN)   
1 57193U 23091AD  26116.85972596  .00014826  00000+0  50036-3 0  9994
2 57193  97.5093 181.6980 0009106 279.1597  80.8613 15.30758040156594
SITRO-AIS 7 (FARTUSHNIY)
1 57194U 23091AE  26116.81060674  .00006211  00000+0  25312-3 0  9994
2 57194  97.5105 179.4918 0010198 290.4472  69.5670 15.24784595156444
SITRO-AIS 10 (BURDAEV)  
1 57199U 23091AK  26116.83748760  .00019542  00000+0  54694-3 0  9996
2 57199  97.5112 186.2244 0005626 246.3104 113.7549 15.36673453156874
SITRO-AIS 9 (SHCHUKIN)  
1 57201U 23091AM  26116.84849175  .00019332  00000+0  54876-3 0  9992
2 57201  97.5111 186.0038 0005821 247.1113 112.9516 15.36233631156866
SITRO-AIS 12 (SMIRENNIY)
1 57204U 23091AQ  26116.84862634  .00020110  00000+0  56570-3 0  9999
2 57204  97.5123 186.4396 0005615 239.5137 120.5552 15.36510218156881
SITRO-AIS 11 (SHEFFER)  
1 57208U 23091AU  26116.81035141  .00020380  00000+0  56629-3 0  9999
2 57208  97.5120 186.6164 0005518 239.0660 121.0042 15.36890478156895
SITRO-AIS 25            
1 59066U 24039R   26116.84727034  .00007832  00000+0  61005-3 0  9999
2 59066  95.3924 199.8212 0147179 146.8858 214.1689 14.93094807117062
SITRO-AIS 26            
1 59067U 24039S   26116.84179815  .00007597  00000+0  59449-3 0  9995
2 59067  95.3923 199.7253 0147432 147.4384 213.6042 14.92901000117056
SITRO-AIS 27            
1 59068U 24039T   26116.82623995  .00006804  00000+0  52835-3 0  9999
2 59068  95.3921 199.9633 0146494 146.2886 214.7764 14.93304709117079
SITRO-AIS 28            
1 59071U 24039U   26116.80487307  .00006549  00000+0  50835-3 0  9990
2 59071  95.3929 199.9931 0146345 146.1910 214.8754 14.93343818117078
GRBBETA                 
1 60237U 24128C   26116.84369733  .00004468  00000+0  31037-3 0  9992
2 60237  61.9915  36.3454 0046982 123.8827 236.6749 15.06215069 98533
OOV-CUBE (TUBSAT-30)    
1 60240U 24128F   26116.74932294  .00002968  00000+0  23209-3 0  9998
2 60240  61.9960  44.8977 0050469 122.4640 238.1345 15.02511706 98389
ROBUSTA-3A (MEDITERRAN*)
1 60243U 24128J   26116.85699785  .00009772  00000+0  58111-3 0  9998
2 60243  61.9880  29.6522 0047835 117.6657 242.9304 15.10860906 98664
LASARSAT                
1 62391U 24247Q   26116.50090443  .00036052  00000+0  79791-3 0  9992
2 62391  44.9748 191.9414 0005523 356.8551   3.2302 15.43227216 75326
